{
    "links": {
        "self": "http://www.neowsapp.com/rest/v1/neo/3599405?api_key=iIulBulltgU6a56xZRHN4H3l9WmuAYTsLGpBGhQ2"
    },
    "id": "3599405",
    "neo_reference_id": "3599405",
    "name": "(2012 DZ)",
    "designation": "2012 DZ",
    "nasa_jpl_url": "http://ssd.jpl.nasa.gov/sbdb.cgi?sstr=3599405",
    "absolute_magnitude_h": 26.1,
    "estimated_diameter": {
        "kilometers": {
            "estimated_diameter_min": 0.0160160338,
            "estimated_diameter_max": 0.0358129403
        },
        "meters": {
            "estimated_diameter_min": 16.0160337979,
            "estimated_diameter_max": 35.8129403019
        },
        "miles": {
            "estimated_diameter_min": 0.0099518989,
            "estimated_diameter_max": 0.0222531225
        },
        "feet": {
            "estimated_diameter_min": 52.5460443254,
            "estimated_diameter_max": 117.4965270602
        }
    },
    "is_potentially_hazardous_asteroid": false,
    "close_approach_data": [
        {
            "close_approach_date": "2009-03-16",
            "close_approach_date_full": "2009-Mar-16 09:10",
            "epoch_date_close_approach": 1237194600000,
            "relative_velocity": {
                "kilometers_per_second": "17.0058861935",
                "kilometers_per_hour": "61221.1902965316",
                "miles_per_hour": "38040.4668261976"
            },
            "miss_distance": {
                "astronomical": "0.0643215319",
                "lunar": "25.0210759091",
                "kilometers": "9622364.167377053",
                "miles": "5979059.8409192114"
            },
            "orbiting_body": "Mars"
        },
        {
            "close_approach_date": "2012-02-22",
            "close_approach_date_full": "2012-Feb-22 23:04",
            "epoch_date_close_approach": 1329951840000,
            "relative_velocity": {
                "kilometers_per_second": "16.4961252132",
                "kilometers_per_hour": "59386.0507676842",
                "miles_per_hour": "36900.1824895091"
            },
            "miss_distance": {
                "astronomical": "0.0064938391",
                "lunar": "2.5261034099",
                "kilometers": "971464.497482717",
                "miles": "603640.0475748146"
            },
            "orbiting_body": "Earth"
        },
        {
            "close_approach_date": "2012-02-23",
            "close_approach_date_full": "2012-Feb-23 03:59",
            "epoch_date_close_approach": 1329969540000,
            "relative_velocity": {
                "kilometers_per_second": "16.9399433923",
                "kilometers_per_hour": "60983.7962121198",
                "miles_per_hour": "37892.9593741363"
            },
            "miss_distance": {
                "astronomical": "0.0077498107",
                "lunar": "3.0146763623",
                "kilometers": "1159355.173623209",
                "miles": "720389.8999659242"
            },
            "orbiting_body": "Moon"
        }
    ],
    "orbital_data": {
        "orbit_id": "8",
        "orbit_determination_date": "2019-07-19 05:25:36",
        "first_observation_date": "2012-02-19",
        "last_observation_date": "2012-02-21",
        "data_arc_in_days": 2,
        "observations_used": 32,
        "orbit_uncertainty": "7",
        "minimum_orbit_intersection": ".00264537",
        "jupiter_tisserand_invariant": "3.363",
        "epoch_osculation": "2459000.5",
        "eccentricity": ".6482463989169579",
        "semi_major_axis": "2.190512650722067",
        "inclination": "1.286609033049233",
        "ascending_node_longitude": "327.30146339713",
        "orbital_period": "1184.178237239955",
        "perihelion_distance": ".7705207131094471",
        "perihelion_argument": "250.9511283179319",
        "aphelion_distance": "3.610504588334688",
        "perihelion_time": "2459573.617210232633",
        "mean_anomaly": "185.7676174115165",
        "mean_motion": ".3040082891905501",
        "equinox": "J2000",
        "orbit_class": {
            "orbit_class_type": "APO",
            "orbit_class_description": "Near-Earth asteroid orbits which cross the Earth’s orbit similar to that of 1862 Apollo",
            "orbit_class_range": "a (semi-major axis) > 1.0 AU; q (perihelion) < 1.017 AU"
        }
    },
    "is_sentry_object": false
}